{
  "type": "FeatureCollection",
  "features": [
    {
      "type": "Feature",
      "properties": {
        "norad_id": 31275,
        "name": "FENGYUN 1C DEB",
        "group": "fengyun-1c-debris",
        "lat": 10.239346200608749,
        "lon": -135.9461801546319,
        "alt_km": 950.7368682502929,
        "timestamp": "2025-12-25T07:41:10.004585+00:00",
        "meta_object_name": "FENGYUN 1C DEB",
        "meta_object_id": "1999-025BNH",
        "meta_epoch": "2025-12-24T01:45:49.783104",
        "meta_mean_motion": 14.02351369,
        "meta_eccentricity": 0.0103496,
        "meta_inclination": 98.9438,
        "meta_ra_of_asc_node": 41.2001,
        "meta_arg_of_pericenter": 321.1011,
        "meta_mean_anomaly": 38.2739,
        "meta_ephemeris_type": 0,
        "meta_classification_type": "U",
        "meta_norad_cat_id": 31275,
        "meta_element_set_no": 999,
        "meta_rev_at_epoch": 95645,
        "meta_bstar": 0.00084641644,
        "meta_mean_motion_dot": 1.317e-05,
        "meta_mean_motion_ddot": 0,
        "tle_line1": "1 31275U 99025BNH 25358.07349286  .00001317  00000+0  84642-3 0  9993",
        "tle_line2": "2 31275  98.9438  41.2001 0103496 321.1011  38.2739 14.02351369956456"
      },
      "geometry": {
        "type": "Point",
        "coordinates": [
          -135.9461801546319,
          10.239346200608749
        ]
      }
    },
    {
      "type": "Feature",
      "properties": {
        "norad_id": 31279,
        "name": "FENGYUN 1C DEB",
        "group": "fengyun-1c-debris",
        "lat": -27.38669952077592,
        "lon": 11.714623164171165,
        "alt_km": 861.9825353355336,
        "timestamp": "2025-12-25T07:41:10.004607+00:00",
        "meta_object_name": "FENGYUN 1C DEB",
        "meta_object_id": "1999-025BNM",
        "meta_epoch": "2025-12-24T18:20:55.213152",
        "meta_mean_motion": 14.26334066,
        "meta_eccentricity": 0.00742156,
        "meta_inclination": 98.5169,
        "meta_ra_of_asc_node": 6.7218,
        "meta_arg_of_pericenter": 142.6503,
        "meta_mean_anomaly": 217.987,
        "meta_ephemeris_type": 0,
        "meta_classification_type": "U",
        "meta_norad_cat_id": 31279,
        "meta_element_set_no": 999,
        "meta_rev_at_epoch": 97400,
        "meta_bstar": 0.00042360852,
        "meta_mean_motion_dot": 1.005e-05,
        "meta_mean_motion_ddot": 0,
        "tle_line1": "1 31279U 99025BNM 25358.76452793  .00001005  00000+0  42361-3 0  9997",
        "tle_line2": "2 31279  98.5169   6.7218 0074215 142.6503 217.9870 14.26334066974005"
      },
      "geometry": {
        "type": "Point",
        "coordinates": [
          11.714623164171165,
          -27.38669952077592
        ]
      }
    },
    {
      "type": "Feature",
      "properties": {
        "norad_id": 31281,
        "name": "FENGYUN 1C DEB",
        "group": "fengyun-1c-debris",
        "lat": 81.01687145804263,
        "lon": 66.86947285528107,
        "alt_km": 442.80052283873556,
        "timestamp": "2025-12-25T07:41:10.004618+00:00",
        "meta_object_name": "FENGYUN 1C DEB",
        "meta_object_id": "1999-025BNP",
        "meta_epoch": "2025-12-24T20:14:21.237504",
        "meta_mean_motion": 15.18021263,
        "meta_eccentricity": 0.01123573,
        "meta_inclination": 98.3852,
        "meta_ra_of_asc_node": 135.2636,
        "meta_arg_of_pericenter": 50.6259,
        "meta_mean_anomaly": 310.486,
        "meta_ephemeris_type": 0,
        "meta_classification_type": "U",
        "meta_norad_cat_id": 31281,
        "meta_element_set_no": 999,
        "meta_rev_at_epoch": 99915,
        "meta_bstar": 0.0011058365,
        "meta_mean_motion_dot": 0.00026539,
        "meta_mean_motion_ddot": 0,
        "tle_line1": "1 31281U 99025BNP 25358.84330136  .00026539  00000+0  11058-2 0  9992",
        "tle_line2": "2 31281  98.3852 135.2636 0112357  50.6259 310.4860 15.18021263999158"
      },
      "geometry": {
        "type": "Point",
        "coordinates": [
          66.86947285528107,
          81.01687145804263
        ]
      }
    },
    {
      "type": "Feature",
      "properties": {
        "norad_id": 31282,
        "name": "FENGYUN 1C DEB",
        "group": "fengyun-1c-debris",
        "lat": -14.113726225504974,
        "lon": -80.03337772414376,
        "alt_km": 760.8883421165465,
        "timestamp": "2025-12-25T07:41:10.004629+00:00",
        "meta_object_name": "FENGYUN 1C DEB",
        "meta_object_id": "1999-025BNQ",
        "meta_epoch": "2025-12-23T12:29:57.299712",
        "meta_mean_motion": 14.43486949,
        "meta_eccentricity": 0.0126833,
        "meta_inclination": 99.2174,
        "meta_ra_of_asc_node": 275.6799,
        "meta_arg_of_pericenter": 254.4727,
        "meta_mean_anomaly": 104.2427,
        "meta_ephemeris_type": 0,
        "meta_classification_type": "U",
        "meta_norad_cat_id": 31282,
        "meta_element_set_no": 999,
        "meta_rev_at_epoch": 97276,
        "meta_bstar": 0.00019477488,
        "meta_mean_motion_dot": 6.68e-06,
        "meta_mean_motion_ddot": 0,
        "tle_line1": "1 31282U 99025BNQ 25357.52080208  .00000668  00000+0  19477-3 0  9998",
        "tle_line2": "2 31282  99.2174 275.6799 0126833 254.4727 104.2427 14.43486949972762"
      },
      "geometry": {
        "type": "Point",
        "coordinates": [
          -80.03337772414376,
          -14.113726225504974
        ]
      }
    },
    {
      "type": "Feature",
      "properties": {
        "norad_id": 31284,
        "name": "FENGYUN 1C DEB",
        "group": "fengyun-1c-debris",
        "lat": 5.647310987165028,
        "lon": 93.48189207224755,
        "alt_km": 805.009063954245,
        "timestamp": "2025-12-25T07:41:10.004639+00:00",
        "meta_object_name": "FENGYUN 1C DEB",
        "meta_object_id": "1999-025BNS",
        "meta_epoch": "2025-12-23T12:42:57.818304",
        "meta_mean_motion": 13.97914234,
        "meta_eccentricity": 0.01423046,
        "meta_inclination": 99.7207,
        "meta_ra_of_asc_node": 92.5583,
        "meta_arg_of_pericenter": 29.6928,
        "meta_mean_anomaly": 331.2216,
        "meta_ephemeris_type": 0,
        "meta_classification_type": "U",
        "meta_norad_cat_id": 31284,
        "meta_element_set_no": 999,
        "meta_rev_at_epoch": 95313,
        "meta_bstar": 0.000450329,
        "meta_mean_motion_dot": 6.47e-06,
        "meta_mean_motion_ddot": 0,
        "tle_line1": "1 31284U 99025BNS 25357.52983586  .00000647  00000+0  45033-3 0  9995",
        "tle_line2": "2 31284  99.7207  92.5583 0142304  29.6928 331.2216 13.97914234953138"
      },
      "geometry": {
        "type": "Point",
        "coordinates": [
          93.48189207224755,
          5.647310987165028
        ]
      }
    },
    {
      "type": "Feature",
      "properties": {
        "norad_id": 31285,
        "name": "FENGYUN 1C DEB",
        "group": "fengyun-1c-debris",
        "lat": -4.949170081368878,
        "lon": 158.6527663838006,
        "alt_km": 689.5194021912639,
        "timestamp": "2025-12-25T07:41:10.004668+00:00",
        "meta_object_name": "FENGYUN 1C DEB",
        "meta_object_id": "1999-025BNT",
        "meta_epoch": "2025-12-23T16:55:08.666688",
        "meta_mean_motion": 14.26049071,
        "meta_eccentricity": 0.02003008,
        "meta_inclination": 98.5206,
        "meta_ra_of_asc_node": 337.8246,
        "meta_arg_of_pericenter": 154.7424,
        "meta_mean_anomaly": 21.0164,
        "meta_ephemeris_type": 0,
        "meta_classification_type": "U",
        "meta_norad_cat_id": 31285,
        "meta_element_set_no": 999,
        "meta_rev_at_epoch": 97455,
        "meta_bstar": 0.00013578366,
        "meta_mean_motion_dot": 3.55e-06,
        "meta_mean_motion_ddot": 0,
        "tle_line1": "1 31285U 99025BNT 25357.70496142  .00000355  00000+0  13578-3 0  9998",
        "tle_line2": "2 31285  98.5206 337.8246 0200300 154.7424  21.0164 14.26049071974554"
      },
      "geometry": {
        "type": "Point",
        "coordinates": [
          158.6527663838006,
          -4.949170081368878
        ]
      }
    },
    {
      "type": "Feature",
      "properties": {
        "norad_id": 31286,
        "name": "FENGYUN 1C DEB",
        "group": "fengyun-1c-debris",
        "lat": 14.797652925567444,
        "lon": 75.74634316123358,
        "alt_km": 807.091106957012,
        "timestamp": "2025-12-25T07:41:10.004680+00:00",
        "meta_object_name": "FENGYUN 1C DEB",
        "meta_object_id": "1999-025BNU",
        "meta_epoch": "2025-12-24T10:39:17.716320",
        "meta_mean_motion": 14.22891604,
        "meta_eccentricity": 0.00786424,
        "meta_inclination": 100.8587,
        "meta_ra_of_asc_node": 251.7618,
        "meta_arg_of_pericenter": 248.2654,
        "meta_mean_anomaly": 111.0132,
        "meta_ephemeris_type": 0,
        "meta_classification_type": "U",
        "meta_norad_cat_id": 31286,
        "meta_element_set_no": 999,
        "meta_rev_at_epoch": 64186,
        "meta_bstar": 0.0027763524,
        "meta_mean_motion_dot": 6.385e-05,
        "meta_mean_motion_ddot": 0,
        "tle_line1": "1 31286U 99025BNU 25358.44395505  .00006385  00000+0  27764-2 0  9992",
        "tle_line2": "2 31286 100.8587 251.7618 0078642 248.2654 111.0132 14.22891604641860"
      },
      "geometry": {
        "type": "Point",
        "coordinates": [
          75.74634316123358,
          14.797652925567444
        ]
      }
    }
  ]
}